{
  "type": "FeatureCollection",
  "features": [
    {
      "type": "Feature",
      "properties": {
        "norad_id": 36036,
        "name": "SMOS",
        "group": "resource",
        "lat": 38.90294153259427,
        "lon": 164.4962167269418,
        "alt_km": 755.8317328534176,
        "timestamp": "2025-12-12T07:43:20.160332+00:00",
        "meta_object_name": "SMOS",
        "meta_object_id": "2009-059A",
        "meta_epoch": "2025-12-11T23:12:00.642240",
        "meta_mean_motion": 14.39740214,
        "meta_eccentricity": 0.00011035,
        "meta_inclination": 98.438,
        "meta_ra_of_asc_node": 171.0265,
        "meta_arg_of_pericenter": 85.138,
        "meta_mean_anomaly": 274.9934,
        "meta_ephemeris_type": 0,
        "meta_classification_type": "U",
        "meta_norad_cat_id": 36036,
        "meta_element_set_no": 999,
        "meta_rev_at_epoch": 84651,
        "meta_bstar": 0.00020718147,
        "meta_mean_motion_dot": 6.06e-06,
        "meta_mean_motion_ddot": 0,
        "tle_line1": "1 36036U 09059A   25345.96667410  .00000606  00000+0  20718-3 0  9991",
        "tle_line2": "2 36036  98.4380 171.0265 0001103  85.1380 274.9934 14.39740214846511"
      },
      "geometry": {
        "type": "Point",
        "coordinates": [
          164.4962167269418,
          38.90294153259427
        ]
      }
    },
    {
      "type": "Feature",
      "properties": {
        "norad_id": 36110,
        "name": "YAOGAN-7",
        "group": "resource",
        "lat": 12.617869028369322,
        "lon": 49.891049691555985,
        "alt_km": 644.8145886268849,
        "timestamp": "2025-12-12T07:43:20.160343+00:00",
        "meta_object_name": "YAOGAN-7",
        "meta_object_id": "2009-069A",
        "meta_epoch": "2025-12-11T14:42:54.355104",
        "meta_mean_motion": 14.77729937,
        "meta_eccentricity": 0.00233975,
        "meta_inclination": 98.0301,
        "meta_ra_of_asc_node": 227.3742,
        "meta_arg_of_pericenter": 285.1322,
        "meta_mean_anomaly": 74.7301,
        "meta_ephemeris_type": 0,
        "meta_classification_type": "U",
        "meta_norad_cat_id": 36110,
        "meta_element_set_no": 999,
        "meta_rev_at_epoch": 86192,
        "meta_bstar": 0.00015791372,
        "meta_mean_motion_dot": 1.083e-05,
        "meta_mean_motion_ddot": 0,
        "tle_line1": "1 36110U 09069A   25345.61312911  .00001083  00000+0  15791-3 0  9995",
        "tle_line2": "2 36110  98.0301 227.3742 0023397 285.1322  74.7301 14.77729937861922"
      },
      "geometry": {
        "type": "Point",
        "coordinates": [
          49.891049691555985,
          12.617869028369322
        ]
      }
    },
    {
      "type": "Feature",
      "properties": {
        "norad_id": 36605,
        "name": "TANDEM-X",
        "group": "resource",
        "lat": -9.16576148626658,
        "lon": -7.082761693192808,
        "alt_km": 512.5488855717058,
        "timestamp": "2025-12-12T07:43:20.160353+00:00",
        "meta_object_name": "TANDEM-X",
        "meta_object_id": "2010-030A",
        "meta_epoch": "2025-12-11T11:12:43.510464",
        "meta_mean_motion": 15.19157824,
        "meta_eccentricity": 0.00018635,
        "meta_inclination": 97.4452,
        "meta_ra_of_asc_node": 350.866,
        "meta_arg_of_pericenter": 82.9447,
        "meta_mean_anomaly": 277.1999,
        "meta_ephemeris_type": 0,
        "meta_classification_type": "U",
        "meta_norad_cat_id": 36605,
        "meta_element_set_no": 999,
        "meta_rev_at_epoch": 85814,
        "meta_bstar": 0.00012772132,
        "meta_mean_motion_dot": 2.617e-05,
        "meta_mean_motion_ddot": 0,
        "tle_line1": "1 36605U 10030A   25345.46717026  .00002617  00000+0  12772-3 0  9993",
        "tle_line2": "2 36605  97.4452 350.8660 0001863  82.9447 277.1999 15.19157824858146"
      },
      "geometry": {
        "type": "Point",
        "coordinates": [
          -7.082761693192808,
          -9.16576148626658
        ]
      }
    },
    {
      "type": "Feature",
      "properties": {
        "norad_id": 36795,
        "name": "CARTOSAT-2B",
        "group": "resource",
        "lat": 81.51428698456769,
        "lon": -78.13749632050776,
        "alt_km": 617.0203023328177,
        "timestamp": "2025-12-12T07:43:20.160364+00:00",
        "meta_object_name": "CARTOSAT-2B",
        "meta_object_id": "2010-035A",
        "meta_epoch": "2025-12-12T00:48:23.177376",
        "meta_mean_motion": 14.78725891,
        "meta_eccentricity": 0.00131193,
        "meta_inclination": 97.7856,
        "meta_ra_of_asc_node": 35.0865,
        "meta_arg_of_pericenter": 78.8922,
        "meta_mean_anomaly": 281.3764,
        "meta_ephemeris_type": 0,
        "meta_classification_type": "U",
        "meta_norad_cat_id": 36795,
        "meta_element_set_no": 999,
        "meta_rev_at_epoch": 83219,
        "meta_bstar": 0.0010849764,
        "meta_mean_motion_dot": 7.931e-05,
        "meta_mean_motion_ddot": 0,
        "tle_line1": "1 36795U 10035A   25346.03360159  .00007931  00000+0  10850-2 0  9991",
        "tle_line2": "2 36795  97.7856  35.0865 0013119  78.8922 281.3764 14.78725891832198"
      },
      "geometry": {
        "type": "Point",
        "coordinates": [
          -78.13749632050776,
          81.51428698456769
        ]
      }
    },
    {
      "type": "Feature",
      "properties": {
        "norad_id": 36834,
        "name": "YAOGAN-10",
        "group": "resource",
        "lat": 15.069457694355007,
        "lon": -171.70782146879043,
        "alt_km": 615.531959899904,
        "timestamp": "2025-12-12T07:43:20.160375+00:00",
        "meta_object_name": "YAOGAN-10",
        "meta_object_id": "2010-038A",
        "meta_epoch": "2025-12-12T00:52:19.318080",
        "meta_mean_motion": 14.84606664,
        "meta_eccentricity": 0.00015468,
        "meta_inclination": 97.9148,
        "meta_ra_of_asc_node": 5.8622,
        "meta_arg_of_pericenter": 83.5679,
        "meta_mean_anomaly": 356.5281,
        "meta_ephemeris_type": 0,
        "meta_classification_type": "U",
        "meta_norad_cat_id": 36834,
        "meta_element_set_no": 999,
        "meta_rev_at_epoch": 82943,
        "meta_bstar": 0.00058296627,
        "meta_mean_motion_dot": 4.873e-05,
        "meta_mean_motion_ddot": 0,
        "tle_line1": "1 36834U 10038A   25346.03633470  .00004873  00000+0  58297-3 0  9997",
        "tle_line2": "2 36834  97.9148   5.8622 0001546  83.5679 356.5281 14.84606664829432"
      },
      "geometry": {
        "type": "Point",
        "coordinates": [
          -171.70782146879043,
          15.069457694355007
        ]
      }
    },
    {
      "type": "Feature",
      "properties": {
        "norad_id": 37216,
        "name": "COSMO-SKYMED 4",
        "group": "resource",
        "lat": 81.97184732727247,
        "lon": 66.78939930492182,
        "alt_km": 614.0907728798193,
        "timestamp": "2025-12-12T07:43:20.160385+00:00",
        "meta_object_name": "COSMO-SKYMED 4",
        "meta_object_id": "2010-060A",
        "meta_epoch": "2025-12-12T00:49:48.417024",
        "meta_mean_motion": 14.82168218,
        "meta_eccentricity": 0.0001388,
        "meta_inclination": 97.8809,
        "meta_ra_of_asc_node": 167.3685,
        "meta_arg_of_pericenter": 76.1836,
        "meta_mean_anomaly": 283.9532,
        "meta_ephemeris_type": 0,
        "meta_classification_type": "U",
        "meta_norad_cat_id": 37216,
        "meta_element_set_no": 999,
        "meta_rev_at_epoch": 81684,
        "meta_bstar": 0.00012865734,
        "meta_mean_motion_dot": 9.73e-06,
        "meta_mean_motion_ddot": 0,
        "tle_line1": "1 37216U 10060A   25346.03458816  .00000973  00000+0  12866-3 0  9995",
        "tle_line2": "2 37216  97.8809 167.3685 0001388  76.1836 283.9532 14.82168218816849"
      },
      "geometry": {
        "type": "Point",
        "coordinates": [
          66.78939930492182,
          81.97184732727247
        ]
      }
    },
    {
      "type": "Feature",
      "properties": {
        "norad_id": 37387,
        "name": "RESOURCESAT-2",
        "group": "resource",
        "lat": 31.984898654915476,
        "lon": -124.58098463299426,
        "alt_km": 819.1615970394951,
        "timestamp": "2025-12-12T07:43:20.160395+00:00",
        "meta_object_name": "RESOURCESAT-2",
        "meta_object_id": "2011-015A",
        "meta_epoch": "2025-12-12T00:16:28.390944",
        "meta_mean_motion": 14.21596785,
        "meta_eccentricity": 0.00064759,
        "meta_inclination": 98.7878,
        "meta_ra_of_asc_node": 49.5665,
        "meta_arg_of_pericenter": 44.5789,
        "meta_mean_anomaly": 315.5908,
        "meta_ephemeris_type": 0,
        "meta_classification_type": "U",
        "meta_norad_cat_id": 37387,
        "meta_element_set_no": 999,
        "meta_rev_at_epoch": 75958,
        "meta_bstar": 0.00012699161,
        "meta_mean_motion_dot": 2.34e-06,
        "meta_mean_motion_ddot": 0,
        "tle_line1": "1 37387U 11015A   25346.01143971  .00000234  00000+0  12699-3 0  9990",
        "tle_line2": "2 37387  98.7878  49.5665 0006475  44.5789 315.5908 14.21596785759584"
      },
      "geometry": {
        "type": "Point",
        "coordinates": [
          -124.58098463299426,
          31.984898654915476
        ]
      }
    }
  ]
}